full_name,a,e,i,om,w,ma
       (2018 BY2),1.641309763,0.381522684,8.992014598,202.4539982,330.188841,110.7792228
       (2018 BZ2),2.173130847,0.598562276,11.81041725,244.1459645,150.5758707,345.103838
       (2018 BM3),1.116646736,0.510626259,19.61678634,105.4787976,250.7710229,244.7152836
       (2018 BD6),2.421557914,0.574229151,48.86756356,130.7480181,351.3025275,280.3137421
       (2018 BT6),2.251557222,0.82755133,3.004910508,307.1830488,71.97180665,320.5132672
       (2018 BA7),1.476768154,0.492270495,18.37364352,322.3940202,67.8022532,254.2123639
       (2018 CZ2),2.179372145,0.6709726,5.412516566,120.6213571,117.8754326,298.7123262
       (2018 DA1),1.207261626,0.727188636,25.49853568,139.9326523,233.9093666,153.551431
       (2018 DH1),2.095753665,0.60286588,1.96845,146.0813437,97.47049213,310.6524112
       (2018 EB),1.016573051,0.012211657,29.43606138,194.5562752,126.8622238,104.6719572
       (2018 EE),2.823948492,0.649314649,3.89388203,109.4716645,34.74280941,213.5845671
       (2018 EM2),2.027811556,0.482018564,6.53590722,64.50849187,188.7962314,312.2837359
       (2018 ED4),2.654411575,0.623385116,14.47677298,274.8715459,349.3961774,196.1148378
       (2018 EH4),2.060807353,0.612245758,6.18537412,2.879261125,75.22947787,357.6285361
       (2018 EJ4),1.256993917,0.183377154,10.38758655,78.09812247,188.2432402,278.7576177
       (2018 FS3),1.881130615,0.48598669,4.332388583,188.6510286,69.19571755,353.0311424
       (2018 FJ4),1.47910848,0.386610078,1.228406949,223.9609874,88.79911326,102.7581252
       (2018 FJ5),2.486503013,0.856616797,18.25157577,124.3359899,287.6187823,266.4433803
       (2018 FO5),1.660389586,0.43478088,9.129491496,236.9737962,41.29498996,47.01184655
       (2018 GM),1.669236789,0.552211477,33.06120566,18.87202816,255.7862228,63.83275582
       (2018 GJ1),1.804345641,0.551411176,6.800134633,38.33912518,250.6029544,8.077953013
       (2018 GG2),2.23694216,0.710082178,43.30958917,195.0835544,278.5053116,308.1369189
       (2018 HQ),1.813955009,0.579407785,13.78159204,9.118173203,294.8865576,330.39815
       (2018 HL2),1.670833029,0.4679091,33.45902136,45.9173014,233.1842801,53.77592135
       (2018 JA),1.420774814,0.296991688,28.14760706,63.52540847,197.8283258,174.256208
       (2018 JD2),1.823173353,0.882404811,50.98671514,54.57025974,313.1997322,343.0061912
       (2018 JK3),0.954119532,0.278270769,43.23109629,64.59082956,305.0874793,171.7008581
       (2018 JD5),2.350851073,0.55385271,3.63183539,269.3922084,30.98781405,249.7709221
       (2018 KB1),1.66600229,0.373809158,12.12932248,107.2960523,171.7298473,62.56131372
       (2018 LK),1.067794812,0.316693245,13.93493355,85.1847381,279.8724609,34.57099984
       (2018 LB1),2.78526092,0.645512469,1.178933755,313.962211,23.01917069,171.9390223
       (2018 LL2),2.622719981,0.603684015,19.81719174,209.6521525,7.604531682,219.7174169
       (2018 LC3),1.345895356,0.547889119,44.36392972,111.2133844,76.23551584,251.7018603
       (2018 LF5),2.79160483,0.618643169,41.04132789,100.7497209,181.0902305,188.3350196
       (2018 LZ13),1.354864079,0.299776106,66.41531537,279.691316,171.1072293,51.94809182
       (2018 LG16),1.550592911,0.353796523,22.94148399,77.36813905,0.301533721,321.3133874
       (2018 MV4),1.251288316,0.24255305,26.11508446,109.6118804,344.704226,113.2710014
       (2018 MR5),2.071175869,0.719601049,2.827321252,326.733679,204.5869186,324.8054546
       (2018 MW6),3.391769205,0.773778329,10.24362971,240.4730193,120.7701207,129.9449983
       (2018 MY6),0.905208748,0.154317566,49.99471313,94.09585209,351.7092488,138.8792245
       (2018 MG7),0.912344676,0.327187014,25.12204274,270.5673899,132.2726538,209.4920449
       (2018 NB),2.390271627,0.55467068,0.924598743,131.3164851,186.6835687,230.4634069
       (2018 NC),2.060155798,0.59843077,6.706892391,128.4322519,74.96000328,314.6236122
       (2018 NY14),1.261483106,0.772024458,25.1788362,141.1412698,315.5907589,184.0589973
       (2018 NE15),2.053737507,0.514460301,7.844262683,184.9925809,35.11555154,40.08710299
       (2018 NF15),1.653790432,0.548737934,3.274456322,13.71741498,32.2795893,14.84049392
       (2018 OB1),3.18150102,0.690087233,4.336075025,174.571256,225.0562767,138.5456822
       (2018 PL23),1.566799094,0.787252663,14.34526168,178.348327,293.6487514,358.4024863
       (2018 PQ23),2.165295448,0.612250288,18.576545,354.5209123,45.22771741,254.5947321
       (2018 PK24),1.944560604,0.661158725,6.695633106,320.5727834,119.9273556,281.564367
       (2018 PP29),3.192512186,0.743124934,20.5914913,119.3981622,301.5455627,347.6558505
       (2018 QT),2.275501453,0.612714345,1.325404779,354.6258086,64.87819691,223.3751868
       (2018 QN1),2.281067771,0.556888053,6.388014073,63.6815358,325.4169195,223.6877567
       (2018 RB),1.950575413,0.732035004,4.557127406,349.2491169,244.283689,324.2603072
       (2018 RB7),2.41391321,0.668999481,5.298094555,115.5612181,314.3244481,205.4795899
       (2018 RJ7),2.6712091,0.644832312,4.053627971,135.990165,296.3841256,170.2155573
       (2018 SX2),1.352737164,0.296783964,10.73792598,351.0987231,338.277746,171.0151759
       (2018 SK3),2.598476969,0.703932966,33.92387825,353.5174303,124.7609303,165.519575
       (2018 TO1),1.534416531,0.396098936,3.648026898,91.21808487,218.6180523,85.92563066
       (2018 TY2),2.290812688,0.841038652,4.613235275,273.2485687,248.7675459,191.193819
       (2018 TF3),2.134131598,0.716366887,6.868861617,51.80290134,76.29929246,229.2674814
       (2018 UY),1.248755758,0.531266004,1.774102125,73.12728603,113.9273995,98.7077334
       (2018 UA1),2.527594381,0.624426193,18.45690091,358.9275284,348.2623766,200.8432073
       (2018 UQ1),1.61328195,0.49177957,1.610866364,255.384386,218.993375,346.349559
       (2018 UC2),1.576143106,0.410295658,31.31686357,209.6775509,134.6522332,49.23948682
       (2018 VG3),1.508083022,0.650273173,6.006157892,356.0099351,283.5320839,103.0398647
       (2018 WR1),2.253180977,0.645352449,15.17344794,274.6607243,244.7885346,195.1269973
       (2018 WP2),1.943398499,0.522201321,7.897304604,55.08207962,309.546152,289.2462545
       (2018 WE3),2.727094601,0.660569114,8.704577639,240.6669086,159.4221336,173.4773743
       (2018 XR),2.152088158,0.667588967,20.52129846,78.39027886,114.4237549,203.7640834
       (2018 XY3),2.099345294,0.621872878,20.27288577,80.90758241,108.1323414,220.107537
       (2018 XG5),2.435380291,0.622399681,12.89322382,215.5403772,320.587949,162.3334757
       (2018 XV5),2.587776018,0.633818307,11.22652188,154.9099668,161.1641653,220.3657429
       (2018 YH),1.119389721,0.263887776,11.92392042,320.5214721,245.6649014,170.3846786
       (2018 YJ),2.311822316,0.558964666,18.0826808,25.9664744,153.7134833,187.0133986
       (2018 YJ2),1.160859817,0.403914602,6.521973571,65.14131858,293.3028259,258.7002276
       (2019 AV2),2.461543012,0.645534811,9.011628823,119.7328877,54.35771448,166.7822307
       (2019 AZ2),2.458373369,0.883266008,7.334525048,83.75554305,255.2485567,12.40966743
       (2019 AW4),2.245496702,0.620537931,14.42295839,153.7325957,56.52247582,183.4761676
       (2019 AN5),1.608608511,0.413985237,2.01519985,276.8483626,98.23155764,39.32048259
       (2019 AP6),0.739677399,0.41111254,7.074037275,327.3017102,325.0256275,173.3466412
       (2019 AN7),1.196464353,0.849292675,23.8533676,295.4868141,325.5557802,325.9753769
       (2019 AG13),2.059638238,0.606044885,11.096107,265.5778669,299.6468613,211.0285717
       (2019 BK),2.054648576,0.72815086,4.12975442,264.5584281,121.0607855,250.3851637
       (2019 BC1),2.52949996,0.635696184,17.76601553,118.2028921,328.8280221,179.9278494
       (2019 BP1),2.547334006,0.630005818,23.72657895,34.32962481,18.04012436,184.8569861
       (2019 BG2),1.264653809,0.275944772,14.21645968,328.9959675,65.54871304,179.306278
       (2019 BT2),1.082233482,0.49232574,19.94448691,306.7706993,65.69098718,317.6683868
       (2019 BF5),1.68029097,0.739314019,24.52653081,312.261165,68.71625895,332.310495
       (2019 CH1),1.335333599,0.714055695,10.87541666,296.4943869,73.52659089,132.5884506
       (2019 CT1),1.561237648,0.354967766,19.25038231,325.0782065,152.447178,352.4347767
       (2019 CU1),1.781112201,0.516970039,1.760734652,344.5203977,100.6389081,300.0432069
       (2019 CD2),2.449887683,0.747814251,6.741969873,304.8911621,113.4499428,186.6570265
       (2019 CE4),2.853160277,0.659883631,20.66864653,38.59618641,347.0522499,149.0262403
       (2019 CC5),1.84464723,0.605157561,7.488893191,131.256294,295.5410258,286.6314378
       (2019 CD5),2.314163117,0.666882277,2.623378451,32.71397384,211.1410364,167.0913381
       (2019 DD2),2.042367259,0.511922246,36.64930527,179.0587397,29.97884469,213.9911786
       (2019 EN),2.178938895,0.61841288,9.791648387,192.8993334,46.63756164,182.1126955
       (2019 EU2),2.429259467,0.667840898,15.59277187,199.0592659,246.4073335,187.7402775
       (2019 FH),1.527791625,0.77407437,3.85183778,255.1946997,152.2990286,0.860094722
       (2019 FJ),0.762194943,0.612906684,44.43657403,156.9048859,150.2056807,94.28268904
       (2019 FZ),0.877360344,0.628696011,27.65767063,192.463267,139.9262712,312.5122632
       (2019 FM2),0.973970112,0.269029278,27.98472014,358.8612396,75.39298904,4.02182645
       (2019 GD1),2.610811264,0.800595326,3.557551964,197.60466,237.2213352,170.649925
       (2019 GT2),1.839541951,0.510483008,6.73536958,88.39981337,343.8860149,324.8565246
       (2019 GT3),2.371299249,0.619771256,2.334922686,225.125397,69.80629387,135.5855725
       (2019 HN),1.863657479,0.635888796,34.74806075,207.4095607,81.70587412,209.2973593
       (2019 HH4),1.532380812,0.387510131,33.85248967,211.47642,150.7150187,191.4329378
       (2019 JB1),2.004410047,0.775362352,19.91077006,54.21477577,288.7108595,183.8999009
       (2019 KB4),1.890029441,0.451858698,17.51953025,134.7680759,192.0304263,193.5781306
